STARLINK-1566           
1 46079U 20055BE  20293.91673611 -.01047513  00000-0 -12751-1 0  9998
2 46079  52.9995 290.6936 0003519   8.8822  26.1721 15.62733617  1830
STARLINK-1568           
1 46080U 20055BF  20293.91673611 -.01015492  00000-0 -12408-1 0  9990
2 46080  52.9987 290.7305 0004243 359.6672  17.5355 15.62541276  1834
STARLINK-1571           
1 46081U 20055BG  20293.91673611 -.01097009  00000-0 -14177-1 0  9990
2 46081  52.9994 290.6715 0003001  10.4151  37.0678 15.60893920  1831
STARLINK-1578           
1 46082U 20055BH  20293.91673611 -.00844012  00000-0 -99632-2 0  9994
2 46082  52.9973 290.7114 0004082   4.8540  19.9421 15.62956626  1832
STARLINK-1579           
1 46083U 20055BJ  20293.91673611 -.01013325  00000-0 -13423-1 0  9994
2 46083  52.9996 290.6829 0003174   8.4499  32.4999 15.60479625  1831
FALCON 9 DEB            
1 46084U 20055BK  20293.29784467  .00007585  00000-0  10517-3 0  9999
2 46084  53.0146 296.3326 0014004 167.0643 193.0730 15.58108771 15990
FALCON 9 DEB            
1 46085U 20055BL  20293.86531867  .00008449  00000-0  11556-3 0  9991
2 46085  53.0130 293.4505 0011521 163.7876 196.3506 15.58327684 16076
FALCON 9 DEB            
1 46086U 20055BM  20293.88828009  .00008415  00000-0  11123-3 0  9994
2 46086  53.0095 292.8406 0015649 153.0243 207.1585 15.59197619 16088
FALCON 9 DEB            
1 46087U 20055BN  20293.87403630  .00008359  00000-0  10937-3 0  9992
2 46087  53.0082 292.7374 0013799 144.5977 215.5953 15.59511852 16082
FALCON 9 DEB            
1 46090U 20055BR  20293.72383543  .00009373  00000-0  12571-3 0  9993
2 46090  53.0054 293.9227 0013209 160.0521 200.1009 15.58679620 16055
STARLINK-1585           
1 46117U 20057A   20293.91673611  .00001200  00000-0  19022-4 0  9994
2 46117  52.9971 134.1275 0009549 334.9875 107.1781 15.62751004  2034
STARLINK-1588           
1 46118U 20057B   20293.91673611  .00000024  00000-0  20787-4 0  9998
2 46118  52.9988 145.8035 0001441  71.4313 181.6570 15.05582083 10284
STARLINK-1593           
1 46119U 20057C   20293.91673611  .00001370  00000-0  11327-3 0  9993
2 46119  53.0002 145.7977 0001786  73.0768 234.1309 15.05560131 10297
STARLINK-1601           
1 46120U 20057D   20293.91673611 -.00005023  00000-0 -32590-3 0  9991
2 46120  53.0009 145.7986 0001985  75.4616 321.6080 15.05570418  1865
STARLINK-1602           
1 46121U 20057E   20293.91673611  .00030896  00000-0  34229-3 0  9997
2 46121  52.9991 134.1537 0002982   9.2157  66.6909 15.62725653  1885
STARLINK-1604           
1 46122U 20057F   20293.91673611  .00029447  00000-0  32629-3 0  9990
2 46122  52.9984 134.8280 0006081 351.7016 115.5470 15.62733375  1880
STARLINK-1605           
1 46123U 20057G   20293.91673611  .00030101  00000-0  33332-3 0  9992
2 46123  52.9984 134.8186 0007843 359.3118 113.0461 15.62723651  1889
STARLINK-1614           
1 46124U 20057H   20293.91673611 -.00169934  00000-0 -18821-2 0  9997
2 46124  52.9984 134.8220 0007705 337.6572 132.1617 15.62798212 10441
STARLINK-1618           
1 46125U 20057J   20293.91673611 -.00087141  00000-0 -60309-2 0  9995
2 46125  53.0005 145.7973 0001728  76.2802 212.8492 15.05606761  1907
STARLINK-1619           
1 46126U 20057K   20293.91673611  .00054137  00000-0  37087-2 0  9990
2 46126  53.0000 145.7979 0002010  86.6218 256.4592 15.05555379  1903
STARLINK-1621           
1 46127U 20057L   20293.91673611 -.00335966  00000-0 -37853-2 0  9996
2 46127  53.0004 134.8539 0008877 338.7749 114.5527 15.62892344 10446
STARLINK-1622           
1 46128U 20057M   20293.91673611  .00029052  00000-0  32236-3 0  9992
2 46128  52.9987 134.1002 0003336  13.6959  81.2346 15.62718245  1884
STARLINK-1623           
1 46129U 20057N   20293.91673611  .00028766  00000-0  31881-3 0  9999
2 46129  52.9986 134.8304 0008137 326.4243 138.2605 15.62724182  1889
STARLINK-1624           
1 46130U 20057P   20293.91673611  .00031026  00000-0  34374-3 0  9994
2 46130  52.9984 134.8118 0003770  13.1083 103.0190 15.62720436  1889
STARLINK-1625           
1 46131U 20057Q   20293.91673611  .00030151  00000-0  33427-3 0  9991
2 46131  52.9992 134.1521 0002355  34.0239  43.1127 15.62722373  1889
STARLINK-1630           
1 46132U 20057R   20293.91673611 -.00034234  00000-0 -23397-2 0  9994
2 46132  52.9997 145.7978 0001540  75.7959 303.3463 15.05611237  1860
STARLINK-1637           
1 46133U 20057S   20293.91673611 -.00027438  00000-0 -29486-3 0  9999
2 46133  52.9835 134.0893 0008451 304.4258 153.3859 15.62692705  1887
STARLINK-1638           
1 46134U 20057T   20293.91673611 -.00011877  00000-0 -12376-3 0  9990
2 46134  52.9985 134.8551 0007252 346.3211 109.5309 15.62761218  1828
STARLINK-1639           
1 46135U 20057U   20293.91673611 -.00069856  00000-0 -76257-3 0  9999
2 46135  52.9995 134.8113 0002076  31.9234  83.0074 15.62785479  1825
STARLINK-1643           
1 46136U 20057V   20293.91673611 -.01067762  00000-0 -40727-1 0  9996
2 46136  52.9986 136.6345 0001391  57.0054 238.1540 15.29060727  1816
STARLINK-1586           
1 46137U 20057W   20293.91673611  .00030455  00000-0  33708-3 0  9996
2 46137  53.0005 134.1470 0008568 303.8223 135.8581 15.62722671  1825
STARLINK-1590           
1 46138U 20057X   20293.91673611  .00002305  00000-0  17743-3 0  9991
2 46138  53.0008 145.7964 0002212  83.5761 187.5621 15.05564000  1808
STARLINK-1592           
1 46139U 20057Y   20293.91673611 -.00006701  00000-0 -44105-3 0  9990
2 46139  53.0010 145.7981 0001852  74.4306 358.7000 15.05588456 10291
STARLINK-1594           
1 46140U 20057Z   20293.91673611  .00029039  00000-0  32153-3 0  9999
2 46140  52.9997 134.8244 0008959 337.0231 128.9580 15.62735740 10446
STARLINK-1596           
1 46141U 20057AA  20293.91673611  .00028509  00000-0  31621-3 0  9990
2 46141  53.0000 134.8100 0006555 350.8835 122.6896 15.62722804 10446
STARLINK-1597           
1 46142U 20057AB  20293.91673611 -.00003595  00000-0 -22763-3 0  9998
2 46142  52.9740 145.9496 0001911  77.4562  85.6358 15.05588667  1802
STARLINK-1599           
1 46143U 20057AC  20293.91673611  .00029640  00000-0  32877-3 0  9993
2 46143  53.0001 134.1343 0004605 331.2057 112.3678 15.62711136 10455
STARLINK-1606           
1 46144U 20057AD  20293.91673611 -.00066118  00000-0 -72113-3 0  9994
2 46144  53.0010 134.1362 0003104 352.6688  92.1669 15.62780381  1887
STARLINK-1607           
1 46145U 20057AE  20293.91673611  .00029235  00000-0  32445-3 0  9996
2 46145  52.9993 134.8616 0003660  12.9789  76.5143 15.62709271 10444
STARLINK-1608           
1 46146U 20057AF  20293.91673611 -.00006846  00000-0 -45107-3 0  9991
2 46146  52.9999 145.7973 0001811  77.6790  31.4354 15.05584484  1857
STARLINK-1611           
1 46147U 20057AG  20293.91673611 -.00000510  00000-0 -15800-4 0  9992
2 46147  52.9985 145.8114 0001856  76.5687 122.5901 15.05570451  1852
STARLINK-1616           
1 46148U 20057AH  20293.91673611  .00030181  00000-0  33464-3 0  9993
2 46148  52.9987 134.1614 0003519  12.7866  56.7179 15.62716100  1884
STARLINK-1620           
1 46149U 20057AJ  20293.91673611 -.00079600  00000-0 -86887-3 0  9992
2 46149  52.9982 134.1271 0008986 327.2568 123.9324 15.62783813 10452
STARLINK-1629           
1 46150U 20057AK  20293.91673611 -.00006029  00000-0 -39493-3 0  9990
2 46150  53.0111 145.7398 0001499  82.0260  45.0486 15.05582249  1804
STARLINK-1631           
1 46151U 20057AL  20293.91673611  .00032735  00000-0  36213-3 0  9999
2 46151  52.9959 133.3740 0001827  41.3187  37.5172 15.62735363  1828
STARLINK-1634           
1 46152U 20057AM  20293.91673611  .00000292  00000-0  39215-4 0  9999
2 46152  52.9991 145.7967 0001905  76.0110 249.0906 15.05587421  1801
STARLINK-1636           
1 46153U 20057AN  20293.91673611 -.00076373  00000-0 -83502-3 0  9992
2 46153  52.9980 133.3984 0002071  27.9595  40.7837 15.62782550 10452
STARLINK-1642           
1 46154U 20057AP  20293.91673611 -.01057706  00000-0 -49713-1 0  9997
2 46154  52.9972 136.1601 0001455  65.1067 160.7852 15.22140388  1817
STARLINK-1667           
1 46155U 20057AQ  20293.91673611  .00031747  00000-0  35164-3 0  9999
2 46155  53.0000 134.0635 0002213  36.0079  81.8873 15.62718347  1826
STARLINK-1545           
1 46156U 20057AR  20293.91673611  .00029914  00000-0  33168-3 0  9995
2 46156  52.9982 134.1350 0003805  12.5841  73.4456 15.62719713  1825
STARLINK-1587           
1 46157U 20057AS  20293.91673611  .00030806  00000-0  34108-3 0  9993
2 46157  53.0002 134.1024 0006320 335.7868 126.7845 15.62727313  1822
STARLINK-1589           
1 46158U 20057AT  20293.91673611  .00029891  00000-0  33116-3 0  9994
2 46158  52.9982 134.8319 0002115  25.6714  77.7728 15.62745244 10441
STARLINK-1595           
1 46159U 20057AU  20293.91673611  .00001608  00000-0  12950-3 0  9994
2 46159  52.9921 145.8389 0001579  68.1357 167.0024 15.05579888  1855
STARLINK-1598           
1 46160U 20057AV  20293.91673611 -.00013218  00000-0 -13829-3 0  9994
2 46160  53.0006 134.1487 0008679 303.7269 137.2912 15.62767040  1881
STARLINK-1600           
1 46161U 20057AW  20293.91673611 -.00074085  00000-0 -80989-3 0  9995
2 46161  52.9984 134.1176 0001869  33.6835  54.9754 15.62774164  1886
STARLINK-1603           
1 46162U 20057AX  20293.91673611  .00030024  00000-0  33248-3 0  9995
2 46162  53.0003 134.1295 0008881 309.8351 137.5372 15.62714072 10454
STARLINK-1610           
1 46163U 20057AY  20293.91673611  .00031164  00000-0  34538-3 0  9995
2 46163  52.9982 134.1100 0002205  33.1285  65.6994 15.62713992  1889
STARLINK-1612           
1 46164U 20057AZ  20293.91673611 -.00081881  00000-0 -89592-3 0  9999
2 46164  53.0002 134.1042 0003780   7.5108  92.6085 15.62784160  1884
STARLINK-1613           
1 46165U 20057BA  20293.91673611 -.00002305  00000-0 -13906-3 0  9990
2 46165  53.0012 145.8002 0001614  69.5535 291.5446 15.05578996 10298
STARLINK-1615           
1 46166U 20057BB  20293.91673611 -.00004895  00000-0 -31695-3 0  9992
2 46166  53.0203 145.6867 0001834  83.2166  61.8772 15.05587068  1857
